[{"OBJECT_NAME":"KUIPER-00051","OBJECT_ID":"2025-134M","EPOCH":"2026-03-09T14:55:00.456384","MEAN_MOTION":14.83775882,"ECCENTRICITY":6.43e-5,"INCLINATION":51.9006,"RA_OF_ASC_NODE":226.0794,"ARG_OF_PERICENTER":101.5972,"MEAN_ANOMALY":258.5064,"EPHEMERIS_TYPE":0,"CLASSIFICATION_TYPE":"U","NORAD_CAT_ID":64511,"ELEMENT_SET_NO":999,"REV_AT_EPOCH":4016,"BSTAR":0.00067322,"MEAN_MOTION_DOT":5.404e-5,"MEAN_MOTION_DDOT":0},{"OBJECT_NAME":"FENGYUN 1C DEB","OBJECT_ID":"1999-025CDX","EPOCH":"2026-03-09T22:59:14.256960","MEAN_MOTION":14.52069725,"ECCENTRICITY":0.0144424,"INCLINATION":97.856,"RA_OF_ASC_NODE":74.1221,"ARG_OF_PERICENTER":332.9469,"MEAN_ANOMALY":26.4251,"EPHEMERIS_TYPE":0,"CLASSIFICATION_TYPE":"U","NORAD_CAT_ID":31724,"ELEMENT_SET_NO":999,"REV_AT_EPOCH":65756,"BSTAR":0.0045734099,"MEAN_MOTION_DOT":0.00021216,"MEAN_MOTION_DDOT":0}]
